TIANMU-1 21             
1 58662U 23208C   26180.50170404  .00009073  00000+0  26700-3 0  9996
2 58662  97.4520 300.2479 0005688 269.1685  90.8906 15.35289879139456
TIANMU-1 22             
1 58663U 23208D   26180.55517465  .00006888  00000+0  23096-3 0  9990
2 58663  97.4515 296.8449 0002267 305.9923  54.1108 15.31225080139224
TIANMU-1 15             
1 58700U 24004A   26180.54964562  .00005289  00000+0  20338-3 0  9990
2 58700  97.4663   6.7411 0005574 300.0420  60.0265 15.26833557137663
TIANMU-1 16             
1 58701U 24004B   26180.54012580  .00005282  00000+0  20289-3 0  9993
2 58701  97.4610   5.9568 0004685 319.9906  40.0986 15.26870516137664
TIANMU-1 17             
1 58702U 24004C   26180.52558905  .00005377  00000+0  20652-3 0  9997
2 58702  97.4637   6.4317 0004351 327.9787  32.1186 15.26869055137657
TIANMU-1 18             
1 58703U 24004D   26180.50082095  .00005244  00000+0  20199-3 0  9997
2 58703  97.4655   6.6680 0003529 303.8415  56.2488 15.26788194137656
INSAT-3DS               
1 58990U 24033A   26180.53342978 -.00000144  00000+0  00000+0 0  9999
2 58990   0.0665  98.5173 0001501 350.1904 102.9982  1.00270034 47191
METEOR-M2 4             
1 59051U 24039A   26180.49328470 -.00000002  00000+0  18553-4 0  9990
2 59051  98.7016 139.6369 0007891 128.0752 232.1139 14.22430706121015
GOES 19                 
1 60133U 24119A   26180.50225144 -.00000236  00000+0  00000+0 0  9990
2 60133   0.0211 192.1254 0000320 230.3426 320.7334  1.00262647  7083
MTG-S1                  
1 64723U 25143A   26180.30323588  .00000004  00000+0  00000+0 0  9998
2 64723   0.5939 341.5159 0002759 267.1351 137.4378  1.00272218  3544
METOP-SGA1              
1 65159U 25172A   26179.69698343  .00000038  00000+0  38354-4 0  9993
2 65159  98.6641 239.1808 0008009  20.6446 339.5052 14.19816725 45428
FENGYUN 3H              
1 65815U 25219A   26180.44310301  .00000052  00000+0  44728-4 0  9992
2 65815  98.6769 120.9740 0001463  67.9798 292.1534 14.19922458 39121
