OBJECT_NAME,OBJECT_ID,EPOCH,MEAN_MOTION,ECCENTRICITY,INCLINATION,RA_OF_ASC_NODE,ARG_OF_PERICENTER,MEAN_ANOMALY,EPHEMERIS_TYPE,CLASSIFICATION_TYPE,NORAD_CAT_ID,ELEMENT_SET_NO,REV_AT_EPOCH,BSTAR,MEAN_MOTION_DOT,MEAN_MOTION_DDOT
TIANMU-1 21,2023-208C,2026-06-29T12:02:27.229056,15.35289879,.0005688,97.4520,300.2479,269.1685,90.8906,0,U,58662,999,13945,.267E-3,.9073E-4,0
TIANMU-1 22,2023-208D,2026-06-29T13:19:27.089760,15.31225080,.0002267,97.4515,296.8449,305.9923,54.1108,0,U,58663,999,13922,.23096E-3,.6888E-4,0
TIANMU-1 15,2024-004A,2026-06-29T13:11:29.381568,15.26833557,.0005574,97.4663,6.7411,300.0420,60.0265,0,U,58700,999,13766,.20338E-3,.5289E-4,0
TIANMU-1 16,2024-004B,2026-06-29T12:57:46.869120,15.26870516,.0004685,97.4610,5.9568,319.9906,40.0986,0,U,58701,999,13766,.20289E-3,.5282E-4,0
TIANMU-1 17,2024-004C,2026-06-29T12:36:50.893920,15.26869055,.0004351,97.4637,6.4317,327.9787,32.1186,0,U,58702,999,13765,.20652E-3,.5377E-4,0
TIANMU-1 18,2024-004D,2026-06-29T12:01:10.930080,15.26788194,.0003529,97.4655,6.6680,303.8415,56.2488,0,U,58703,999,13765,.20199E-3,.5244E-4,0
INSAT-3DS,2024-033A,2026-06-29T12:48:08.332992,1.00270034,.0001501,0.0665,98.5173,350.1904,102.9982,0,U,58990,999,4719,0,-.144E-5,0
METEOR-M2 4,2024-039A,2026-06-29T11:50:19.798080,14.22430706,.0007891,98.7016,139.6369,128.0752,232.1139,0,U,59051,999,12101,.18553E-4,-.2E-7,0
GOES 19,2024-119A,2026-06-29T12:03:14.524416,1.00262647,.000032,0.0211,192.1254,230.3426,320.7334,0,U,60133,999,708,0,-.236E-5,0
MTG-S1,2025-143A,2026-06-29T07:16:39.580032,1.00272218,.0002759,0.5939,341.5159,267.1351,137.4378,0,U,64723,999,354,0,.4E-7,0
METOP-SGA1,2025-172A,2026-06-28T16:43:39.368352,14.19816725,.00080097,98.6641,239.1808,20.6446,339.5052,0,U,65159,999,4542,.38353591E-4,.38E-6,0
FENGYUN 3H,2025-219A,2026-06-29T10:38:04.100064,14.19922458,.0001463,98.6769,120.9740,67.9798,292.1534,0,U,65815,999,3912,.44728E-4,.52E-6,0
